[{"OBJECT_NAME":"SMOS","OBJECT_ID":"2009-059A","EPOCH":"2026-03-09T12:46:15.832416","MEAN_MOTION":14.39760281,"ECCENTRICITY":9.828e-5,"INCLINATION":98.4428,"RA_OF_ASC_NODE":257.3122,"ARG_OF_PERICENTER":82.3973,"MEAN_ANOMALY":277.7326,"EPHEMERIS_TYPE":0,"CLASSIFICATION_TYPE":"U","NORAD_CAT_ID":36036,"ELEMENT_SET_NO":999,"REV_AT_EPOCH":85911,"BSTAR":0.00013788061,"MEAN_MOTION_DOT":3.89e-6,"MEAN_MOTION_DDOT":0},{"OBJECT_NAME":"COSMOS 2251 DEB","OBJECT_ID":"1993-036BUW","EPOCH":"2026-03-01T10:52:35.253984","MEAN_MOTION":14.42055642,"ECCENTRICITY":0.00298968,"INCLINATION":74.0181,"RA_OF_ASC_NODE":100.7281,"ARG_OF_PERICENTER":201.146,"MEAN_ANOMALY":222.943,"EPHEMERIS_TYPE":0,"CLASSIFICATION_TYPE":"U","NORAD_CAT_ID":39591,"ELEMENT_SET_NO":999,"REV_AT_EPOCH":62911,"BSTAR":0.0003777758,"MEAN_MOTION_DOT":1.221e-5,"MEAN_MOTION_DDOT":0}]
